{
    "links": {
        "self": "http://www.neowsapp.com/rest/v1/neo/3742341?api_key=iIulBulltgU6a56xZRHN4H3l9WmuAYTsLGpBGhQ2"
    },
    "id": "3742341",
    "neo_reference_id": "3742341",
    "name": "(2016 CK136)",
    "designation": "2016 CK136",
    "nasa_jpl_url": "http://ssd.jpl.nasa.gov/sbdb.cgi?sstr=3742341",
    "absolute_magnitude_h": 23.3,
    "estimated_diameter": {
        "kilometers": {
            "estimated_diameter_min": 0.058150704,
            "estimated_diameter_max": 0.130028927
        },
        "meters": {
            "estimated_diameter_min": 58.1507039646,
            "estimated_diameter_max": 130.0289270043
        },
        "miles": {
            "estimated_diameter_min": 0.0361331611,
            "estimated_diameter_max": 0.0807962044
        },
        "feet": {
            "estimated_diameter_min": 190.7831555951,
            "estimated_diameter_max": 426.6041048727
        }
    },
    "is_potentially_hazardous_asteroid": false,
    "close_approach_data": [
        {
            "close_approach_date": "2016-02-23",
            "close_approach_date_full": "2016-Feb-23 14:52",
            "epoch_date_close_approach": 1456239120000,
            "relative_velocity": {
                "kilometers_per_second": "3.7384225068",
                "kilometers_per_hour": "13458.3210244852",
                "miles_per_hour": "8362.4773054641"
            },
            "miss_distance": {
                "astronomical": "0.2773029891",
                "lunar": "107.8708627599",
                "kilometers": "41483936.513993217",
                "miles": "25776922.8579997146"
            },
            "orbiting_body": "Earth"
        }
    ],
    "orbital_data": {
        "orbit_id": "7",
        "orbit_determination_date": "2017-04-06 08:28:30",
        "first_observation_date": "2016-01-31",
        "last_observation_date": "2016-02-27",
        "data_arc_in_days": 27,
        "observations_used": 17,
        "orbit_uncertainty": "7",
        "minimum_orbit_intersection": ".259356",
        "jupiter_tisserand_invariant": "4.071",
        "epoch_osculation": "2459000.5",
        "eccentricity": ".2945735184825625",
        "semi_major_axis": "1.750605970982643",
        "inclination": "7.696885489843078",
        "ascending_node_longitude": "128.5458999748271",
        "orbital_period": "846.0207891242226",
        "perihelion_distance": "1.234923810633703",
        "perihelion_argument": "41.51348522328174",
        "aphelion_distance": "2.266288131331583",
        "perihelion_time": "2459158.128424267516",
        "mean_anomaly": "292.9257230250241",
        "mean_motion": ".4255214583706177",
        "equinox": "J2000",
        "orbit_class": {
            "orbit_class_type": "AMO",
            "orbit_class_description": "Near-Earth asteroid orbits similar to that of 1221 Amor",
            "orbit_class_range": "1.017 AU < q (perihelion) < 1.3 AU"
        }
    },
    "is_sentry_object": false
}